      2.10          N: GNSS NAV DATA                        RINEX VERSION / TYPE
fic2rin                                 05/27/2021 00:17:09 PGM / RUN BY / DATE
                                                            END OF HEADER
13 21  5 26 22  0  0.0 1.369994133711e-04 4.774847184308e-12 0.000000000000e+00
    3.500000000000e+01-1.381250000000e+01 4.786985111430e-09-1.535768715160e+00
   -7.431954145432e-07 4.975176299922e-03 5.241483449936e-06 5.153667057037e+03
    3.384000000000e+05 1.285225152969e-07-1.221757634332e+00 7.450580596924e-09
    9.676521886549e-01 2.839687500000e+02 9.692307942958e-01-8.032477442070e-09
   -3.793015137162e-10 1.000000000000e+00 2.159000000000e+03 0.000000000000e+00
    2.400000000000e+00 0.000000000000e+00-1.117587089539e-08 3.500000000000e+01
    3.312000000000e+05 4.000000000000e+00
12 21  5 26 22  0  0.0-4.649255424738e-05-5.229594535194e-12 0.000000000000e+00
    8.800000000000e+01 1.541875000000e+02 4.014452932364e-09 1.760908511605e+00
    7.955357432365e-06 8.417303906754e-03 6.726011633873e-06 5.153741048813e+03
    3.384000000000e+05-1.173466444016e-07 8.122005078912e-01-1.937150955200e-07
    9.737926570929e-01 2.539062500000e+02 1.216304343867e+00-7.963545999370e-09
    3.885876148053e-10 1.000000000000e+00 2.159000000000e+03 0.000000000000e+00
    2.400000000000e+00 0.000000000000e+00-1.257285475731e-08 8.800000000000e+01
    3.312000000000e+05 4.000000000000e+00
10 21  5 26 22  0  0.0-1.299227587879e-04-7.617018127348e-12 0.000000000000e+00
    6.100000000000e+01 3.062500000000e+00 4.436970531918e-09 1.079627831267e+00
    3.166496753693e-07 6.646184017882e-03 1.062825322151e-05 5.153672472000e+03
    3.384000000000e+05-4.842877388000e-08-2.403320128593e+00 8.381903171539e-08
    9.692687701863e-01 1.804375000000e+02-2.562788559619e+00-7.876042354492e-09
    5.525230148013e-10 1.000000000000e+00 2.159000000000e+03 0.000000000000e+00
    2.400000000000e+00 0.000000000000e+00 2.328306436539e-09 6.100000000000e+01
    3.312000000000e+05 4.000000000000e+00
 8 21  5 26 22  0  0.0-2.272939309478e-05-1.477928890381e-12 0.000000000000e+00
    3.900000000000e+01-2.646875000000e+01 4.773413117531e-09-9.317646328113e-01
   -1.424923539162e-06 6.350707262754e-03-1.545995473862e-06 5.153602483749e+03
    3.384000000000e+05 2.421438694000e-08 1.770771686697e+00-9.499490261078e-08
    9.670632002811e-01 4.074687500000e+02 5.404233409728e-02-8.696790827675e-09
    8.393206753608e-11 1.000000000000e+00 2.159000000000e+03 0.000000000000e+00
    2.400000000000e+00 0.000000000000e+00 5.122274160385e-09 3.900000000000e+01
    3.312000000000e+05 4.000000000000e+00
 9 21  5 26 22  0  0.0-3.478028811514e-04-2.160049916711e-12 0.000000000000e+00
    8.800000000000e+01-3.562500000000e+00 5.229503544099e-09-5.257086131196e-01
   -2.123415470123e-07 1.863651559688e-03 4.818663001060e-06 5.153763980865e+03
    3.384000000000e+05-3.352761268616e-08-1.370457553172e+00 2.607703208923e-08
    9.528139495541e-01 2.813437500000e+02 1.834194094986e+00-8.297845638578e-09
   -1.710785546799e-10 1.000000000000e+00 2.159000000000e+03 0.000000000000e+00
    2.400000000000e+00 0.000000000000e+00 1.396983861923e-09 8.800000000000e+01
    3.312000000000e+05 4.000000000000e+00
25 21  5 26 22  0  0.0 1.445431262255e-04 7.048583938740e-12 0.000000000000e+00
    2.300000000000e+01 1.489375000000e+02 4.240890935844e-09 1.492846387113e+00
    7.677823305130e-06 9.886024869047e-03 7.158145308495e-06 5.153632892609e+03
    3.384000000000e+05-2.272427082062e-07 7.387228550692e-01 2.048909664154e-08
    9.611997909723e-01 2.397500000000e+02 9.697410176973e-01-8.159982753178e-09
    2.650110387735e-10 1.000000000000e+00 2.159000000000e+03 0.000000000000e+00
    2.400000000000e+00 0.000000000000e+00 5.587935447693e-09 2.300000000000e+01
    3.312000000000e+05 4.000000000000e+00
14 21  5 26 22  0  0.0 7.998896762729e-05-6.025402399246e-12 0.000000000000e+00
    7.000000000000e+01 1.767500000000e+02 4.321251426038e-09 2.083075865431e+00
    9.048730134964e-06 7.156727369875e-04 7.268041372299e-06 5.153763763428e+03
    3.384000000000e+05-2.421438694000e-08 7.850698172862e-01-1.862645149231e-08
    9.572959911520e-01 2.351250000000e+02 2.724165141990e+00-8.121409717885e-09
    3.585863651329e-10 1.000000000000e+00 2.159000000000e+03 0.000000000000e+00
    2.400000000000e+00 0.000000000000e+00-7.916241884232e-09 5.820000000000e+02
    3.312000000000e+05 4.000000000000e+00
29 21  5 26 22  0  0.0-3.537712618709e-04-6.366462912410e-12 0.000000000000e+00
    8.200000000000e+01-3.606250000000e+01 4.343395205559e-09-8.207915513656e-01
   -2.130866050720e-06 1.881694188341e-03 4.284083843231e-08 5.153634342194e+03
    3.384000000000e+05 4.284083843231e-08 1.861254865422e+00-4.284083843231e-08
    9.837223276635e-01 3.933750000000e+02 2.141468473169e+00-8.368205712214e-09
   -3.571577341961e-12 1.000000000000e+00 2.159000000000e+03 0.000000000000e+00
    2.400000000000e+00 0.000000000000e+00-9.778887033463e-09 8.200000000000e+01
    3.312000000000e+05 4.000000000000e+00
31 21  5 26 22  0  0.0-1.195385120809e-04-2.160049916711e-12 0.000000000000e+00
    5.500000000000e+01 3.175000000000e+01 4.284821337150e-09 1.955421816699e+00
    1.719221472740e-06 9.939596173353e-03 1.188553869724e-05 5.153795925140e+03
    3.384000000000e+05-8.754432201385e-08-2.807887247317e-01 7.264316082001e-08
    9.563000833370e-01 1.526250000000e+02 2.629810749945e-01-7.721750213319e-09
   -7.364592479123e-10 1.000000000000e+00 2.159000000000e+03 0.000000000000e+00
    2.400000000000e+00 0.000000000000e+00-1.303851604462e-08 5.500000000000e+01
    3.312000000000e+05 4.000000000000e+00
16 21  5 26 22  0  0.0-3.314740024507e-04-6.025402399246e-12 0.000000000000e+00
    7.900000000000e+01 1.621875000000e+02 4.077669851317e-09-5.954762691197e-02
    8.679926395416e-06 1.220705255400e-02 6.038695573807e-06 5.153707914352e+03
    3.384000000000e+05 1.527369022369e-07 8.309473773679e-01 1.881271600723e-07
    9.738531326634e-01 2.717500000000e+02 6.779661278277e-01-8.189269687382e-09
    4.218032840856e-10 1.000000000000e+00 2.159000000000e+03 0.000000000000e+00
    2.400000000000e+00 0.000000000000e+00-1.024454832077e-08 7.900000000000e+01
    3.312000000000e+05 4.000000000000e+00
27 21  5 26 22  0  0.0-1.368233934045e-04-6.366462912410e-12 0.000000000000e+00
    5.100000000000e+01-2.956250000000e+01 4.598762985509e-09-1.008807754927e+00
   -1.311302185059e-06 9.451044141315e-03-1.318752765656e-06 5.153682312012e+03
    3.384000000000e+05 1.396983861923e-07 1.788029832219e+00-7.450580596924e-09
    9.756449703177e-01 4.088750000000e+02 6.272877138740e-01-8.564999623756e-09
    6.214544575012e-11 1.000000000000e+00 2.159000000000e+03 0.000000000000e+00
    2.400000000000e+00 0.000000000000e+00 1.862645149231e-09 5.100000000000e+01
    3.312000000000e+05 4.000000000000e+00
30 21  5 26 22  0  0.0-4.311869852245e-04-4.888534022029e-12 0.000000000000e+00
    6.600000000000e+01 2.550000000000e+01 4.757698177226e-09 2.365038197174e+00
    1.251697540283e-06 5.237392266281e-03 1.231208443642e-05 5.153704225540e+03
    3.384000000000e+05-1.024454832077e-07-2.806569041094e-01-8.009374141693e-08
    9.371961682222e-01 1.304375000000e+02-2.775203031489e+00-7.952116951876e-09
   -7.618174470402e-10 1.000000000000e+00 2.159000000000e+03 0.000000000000e+00
    2.400000000000e+00 0.000000000000e+00 3.725290298462e-09 6.600000000000e+01
    3.312000000000e+05 4.000000000000e+00
32 21  5 26 22  0  0.0 2.035358920693e-05-9.094947017729e-13 0.000000000000e+00
    9.200000000000e+01-7.812500000000e+00 5.206645449111e-09-2.582544832330e-01
   -4.433095455170e-07 4.971774527803e-03 4.591420292854e-06 5.153660739899e+03
    3.384000000000e+05-1.862645149231e-09-1.360419240453e+00 5.587935447693e-08
    9.567883775964e-01 2.885000000000e+02-2.366497406756e+00-8.383563494785e-09
   -2.653681965077e-10 1.000000000000e+00 2.159000000000e+03 0.000000000000e+00
    2.400000000000e+00 0.000000000000e+00 4.656612873077e-10 9.200000000000e+01
    3.312000000000e+05 4.000000000000e+00
26 21  5 26 22  0  0.0 9.045051410794e-05 4.888534022029e-12 0.000000000000e+00
    6.300000000000e+01 1.606562500000e+02 4.636621705334e-09 7.961418966771e-01
    8.406117558479e-06 5.891567445360e-03 7.152557373047e-06 5.153571743011e+03
    3.384000000000e+05 7.450580596924e-09 6.966716991269e-01 1.806765794754e-07
    9.421571048309e-01 2.321562500000e+02 3.075624706400e-01-8.213913571042e-09
    2.460816788611e-10 1.000000000000e+00 2.159000000000e+03 0.000000000000e+00
    2.400000000000e+00 0.000000000000e+00 6.984919309616e-09 6.300000000000e+01
    3.312000000000e+05 4.000000000000e+00
20 21  5 26 22  0  0.0 5.217888392508e-04-3.410605131648e-13 0.000000000000e+00
    4.000000000000e+01-1.781250000000e+01 4.846273295307e-09-2.824679307140e+00
   -9.667128324509e-07 6.076084333472e-03 1.112371683121e-05 5.151727117538e+03
    3.384000000000e+05-1.005828380585e-07-2.546263729579e+00-2.793967723846e-08
    9.383677169076e-01 1.531250000000e+02 3.036295957617e+00-7.945330954926e-09
    5.335936548889e-10 1.000000000000e+00 2.159000000000e+03 0.000000000000e+00
    2.400000000000e+00 0.000000000000e+00-8.381903171539e-09 4.000000000000e+01
    3.312000000000e+05 4.000000000000e+00
22 21  5 26 22  0  0.0-6.042993627489e-04 9.663381206337e-12 0.000000000000e+00
    9.800000000000e+01-8.687500000000e+00 5.015566061316e-09-1.939589949010e+00
   -4.619359970093e-07 7.016042713076e-03 1.177750527859e-05 5.153531223297e+03
    3.384000000000e+05-1.788139343262e-07-2.499895293188e+00 1.862645149231e-07
    9.350328195958e-01 1.370312500000e+02-9.675029695479e-01-8.058192798932e-09
    6.607418082628e-10 1.000000000000e+00 2.159000000000e+03 0.000000000000e+00
    2.400000000000e+00 0.000000000000e+00-1.769512891769e-08 9.800000000000e+01
    3.312000000000e+05 4.000000000000e+00
